{
  "type": "FeatureCollection",
  "features": [
    {
      "type": "Feature",
      "properties": {
        "norad_id": 38498,
        "name": "FENGYUN 1C DEB",
        "group": "fengyun-1c-debris",
        "lat": -62.099889202550685,
        "lon": 24.034873254226337,
        "alt_km": 1600.9237467035691,
        "timestamp": "2025-12-10T16:57:11.926267+00:00",
        "meta_object_name": "FENGYUN 1C DEB",
        "meta_object_id": "1999-025ESH",
        "meta_epoch": "2025-12-07T07:48:32.940000",
        "meta_mean_motion": 12.96600945,
        "meta_eccentricity": 0.05563263,
        "meta_inclination": 99.6989,
        "meta_ra_of_asc_node": 2.1784,
        "meta_arg_of_pericenter": 84.4862,
        "meta_mean_anomaly": 281.9405,
        "meta_ephemeris_type": 0,
        "meta_classification_type": "U",
        "meta_norad_cat_id": 38498,
        "meta_element_set_no": 999,
        "meta_rev_at_epoch": 53673,
        "meta_bstar": 0.0019285441,
        "meta_mean_motion_dot": 1.094e-05,
        "meta_mean_motion_ddot": 0,
        "tle_line1": "1 38498U 99025ESH 25341.32538125  .00001094  00000+0  19285-2 0  9991",
        "tle_line2": "2 38498  99.6989   2.1784 0556326  84.4862 281.9405 12.96600945536730"
      },
      "geometry": {
        "type": "Point",
        "coordinates": [
          24.034873254226337,
          -62.099889202550685
        ]
      }
    },
    {
      "type": "Feature",
      "properties": {
        "norad_id": 38510,
        "name": "FENGYUN 1C DEB",
        "group": "fengyun-1c-debris",
        "lat": -44.14374114733287,
        "lon": 2.311278537255178,
        "alt_km": 921.2117016457414,
        "timestamp": "2025-12-10T16:57:11.926276+00:00",
        "meta_object_name": "FENGYUN 1C DEB",
        "meta_object_id": "1999-025ESV",
        "meta_epoch": "2025-12-07T07:36:41.393664",
        "meta_mean_motion": 14.13304798,
        "meta_eccentricity": 0.00984571,
        "meta_inclination": 98.6019,
        "meta_ra_of_asc_node": 350.6048,
        "meta_arg_of_pericenter": 165.571,
        "meta_mean_anomaly": 194.8311,
        "meta_ephemeris_type": 0,
        "meta_classification_type": "U",
        "meta_norad_cat_id": 38510,
        "meta_element_set_no": 999,
        "meta_rev_at_epoch": 88593,
        "meta_bstar": 0.00096053844,
        "meta_mean_motion_dot": 1.845e-05,
        "meta_mean_motion_ddot": 0,
        "tle_line1": "1 38510U 99025ESV 25341.31714576  .00001845  00000+0  96054-3 0  9995",
        "tle_line2": "2 38510  98.6019 350.6048 0098457 165.5710 194.8311 14.13304798885936"
      },
      "geometry": {
        "type": "Point",
        "coordinates": [
          2.311278537255178,
          -44.14374114733287
        ]
      }
    },
    {
      "type": "Feature",
      "properties": {
        "norad_id": 38512,
        "name": "FENGYUN 1C DEB",
        "group": "fengyun-1c-debris",
        "lat": -73.43670456982773,
        "lon": -103.51187498375485,
        "alt_km": 1158.3624113665555,
        "timestamp": "2025-12-10T16:57:11.926286+00:00",
        "meta_object_name": "FENGYUN 1C DEB",
        "meta_object_id": "1999-025ESX",
        "meta_epoch": "2025-12-10T03:21:08.986176",
        "meta_mean_motion": 13.7397021,
        "meta_eccentricity": 0.02264501,
        "meta_inclination": 98.3804,
        "meta_ra_of_asc_node": 226.2794,
        "meta_arg_of_pericenter": 112.1956,
        "meta_mean_anomaly": 250.339,
        "meta_ephemeris_type": 0,
        "meta_classification_type": "U",
        "meta_norad_cat_id": 38512,
        "meta_element_set_no": 999,
        "meta_rev_at_epoch": 59534,
        "meta_bstar": 0.0014232555,
        "meta_mean_motion_dot": 1.573e-05,
        "meta_mean_motion_ddot": 0,
        "tle_line1": "1 38512U 99025ESX 25344.13968734  .00001573  00000+0  14233-2 0  9993",
        "tle_line2": "2 38512  98.3804 226.2794 0226450 112.1956 250.3390 13.73970210595340"
      },
      "geometry": {
        "type": "Point",
        "coordinates": [
          -103.51187498375485,
          -73.43670456982773
        ]
      }
    },
    {
      "type": "Feature",
      "properties": {
        "norad_id": 38514,
        "name": "FENGYUN 1C DEB",
        "group": "fengyun-1c-debris",
        "lat": 63.02066487464992,
        "lon": -1.6687138053365473,
        "alt_km": 690.8092074814058,
        "timestamp": "2025-12-10T16:57:11.926296+00:00",
        "meta_object_name": "FENGYUN 1C DEB",
        "meta_object_id": "1999-025ESZ",
        "meta_epoch": "2025-12-10T08:11:05.246016",
        "meta_mean_motion": 14.15607976,
        "meta_eccentricity": 0.0271302,
        "meta_inclination": 98.0508,
        "meta_ra_of_asc_node": 14.1431,
        "meta_arg_of_pericenter": 21.2008,
        "meta_mean_anomaly": 340.016,
        "meta_ephemeris_type": 0,
        "meta_classification_type": "U",
        "meta_norad_cat_id": 38514,
        "meta_element_set_no": 999,
        "meta_rev_at_epoch": 87962,
        "meta_bstar": 0.008795,
        "meta_mean_motion_dot": 0.00024655,
        "meta_mean_motion_ddot": 0,
        "tle_line1": "1 38514U 99025ESZ 25344.34103294  .00024655  00000+0  87950-2 0  9992",
        "tle_line2": "2 38514  98.0508  14.1431 0271302  21.2008 340.0160 14.15607976879627"
      },
      "geometry": {
        "type": "Point",
        "coordinates": [
          -1.6687138053365473,
          63.02066487464992
        ]
      }
    },
    {
      "type": "Feature",
      "properties": {
        "norad_id": 38516,
        "name": "FENGYUN 1C DEB",
        "group": "fengyun-1c-debris",
        "lat": -78.3125671821655,
        "lon": 102.78458989535355,
        "alt_km": 836.9542351383161,
        "timestamp": "2025-12-10T16:57:11.926306+00:00",
        "meta_object_name": "FENGYUN 1C DEB",
        "meta_object_id": "1999-025ETB",
        "meta_epoch": "2025-12-08T16:51:24.952896",
        "meta_mean_motion": 14.34044661,
        "meta_eccentricity": 0.01113663,
        "meta_inclination": 98.4419,
        "meta_ra_of_asc_node": 326.7111,
        "meta_arg_of_pericenter": 137.1935,
        "meta_mean_anomaly": 223.7989,
        "meta_ephemeris_type": 0,
        "meta_classification_type": "U",
        "meta_norad_cat_id": 38516,
        "meta_element_set_no": 999,
        "meta_rev_at_epoch": 84815,
        "meta_bstar": 0.00020290053,
        "meta_mean_motion_dot": 5.64e-06,
        "meta_mean_motion_ddot": 0,
        "tle_line1": "1 38516U 99025ETB 25342.70237214  .00000564  00000+0  20290-3 0  9990",
        "tle_line2": "2 38516  98.4419 326.7111 0111366 137.1935 223.7989 14.34044661848157"
      },
      "geometry": {
        "type": "Point",
        "coordinates": [
          102.78458989535355,
          -78.3125671821655
        ]
      }
    },
    {
      "type": "Feature",
      "properties": {
        "norad_id": 38717,
        "name": "FENGYUN 1C DEB",
        "group": "fengyun-1c-debris",
        "lat": -41.3768764842784,
        "lon": 171.6794197370359,
        "alt_km": 862.6004164716032,
        "timestamp": "2025-12-10T16:57:11.926316+00:00",
        "meta_object_name": "FENGYUN 1C DEB",
        "meta_object_id": "1999-025ETJ",
        "meta_epoch": "2025-12-07T23:46:50.838816",
        "meta_mean_motion": 14.19881201,
        "meta_eccentricity": 0.00569464,
        "meta_inclination": 99.1587,
        "meta_ra_of_asc_node": 357.0411,
        "meta_arg_of_pericenter": 7.7496,
        "meta_mean_anomaly": 21.6196,
        "meta_ephemeris_type": 0,
        "meta_classification_type": "U",
        "meta_norad_cat_id": 38717,
        "meta_element_set_no": 999,
        "meta_rev_at_epoch": 58359,
        "meta_bstar": 0.0023838739,
        "meta_mean_motion_dot": 5.097e-05,
        "meta_mean_motion_ddot": 0,
        "tle_line1": "1 38717U 99025ETJ 25341.99086619  .00005097  00000+0  23839-2 0  9991",
        "tle_line2": "2 38717  99.1587 357.0411 0056946   7.7496  21.6196 14.19881201583591"
      },
      "geometry": {
        "type": "Point",
        "coordinates": [
          171.6794197370359,
          -41.3768764842784
        ]
      }
    },
    {
      "type": "Feature",
      "properties": {
        "norad_id": 38722,
        "name": "FENGYUN 1C DEB",
        "group": "fengyun-1c-debris",
        "lat": -27.601806586425816,
        "lon": 87.71542857221314,
        "alt_km": 769.0980332634081,
        "timestamp": "2025-12-10T16:57:11.926326+00:00",
        "meta_object_name": "FENGYUN 1C DEB",
        "meta_object_id": "1999-025ETP",
        "meta_epoch": "2025-12-07T11:41:09.627072",
        "meta_mean_motion": 14.58179572,
        "meta_eccentricity": 0.01480338,
        "meta_inclination": 99.3541,
        "meta_ra_of_asc_node": 79.152,
        "meta_arg_of_pericenter": 110.7247,
        "meta_mean_anomaly": 250.9886,
        "meta_ephemeris_type": 0,
        "meta_classification_type": "U",
        "meta_norad_cat_id": 38722,
        "meta_element_set_no": 999,
        "meta_rev_at_epoch": 70387,
        "meta_bstar": 0.0047477196,
        "meta_mean_motion_dot": 0.00025504,
        "meta_mean_motion_ddot": 0,
        "tle_line1": "1 38722U 99025ETP 25341.48691698  .00025504  00000+0  47477-2 0  9999",
        "tle_line2": "2 38722  99.3541  79.1520 0148033 110.7247 250.9886 14.58179572703872"
      },
      "geometry": {
        "type": "Point",
        "coordinates": [
          87.71542857221314,
          -27.601806586425816
        ]
      }
    }
  ]
}